NORAD_CAT_ID,OBJECT_NAME,OBJECT_TYPE,EPOCH,MEAN_MOTION,ECCENTRICITY,INCLINATION,RA_OF_ASC_NODE,ARG_OF_PERICENTER,MEAN_ANOMALY,BSTAR,MEAN_MOTION_DOT,MEAN_MOTION_DDOT,TLE_LINE0,TLE_LINE1,TLE_LINE2,SEMIMAJOR_AXIS,PERIOD,APOGEE,PERIGEE,DECAYED
52361.0,STARLINK-3728,PAYLOAD,2023-11-14 12:28:34,15.08852132,0.0001335,53.2188,37.7269,93.9274,266.187,0.00013303,1.831e-05,0.0,0 STARLINK-3728,1 52361U 22045AG  23318.51984106  .00001831  00000-0  13303-3 0  9997,2 52361  53.2188  37.7269 0001335  93.9274 266.1870 15.08852132 88041,6917.843,95.437,540.632,538.785,0.0
52361.0,STARLINK-3728,PAYLOAD,2023-11-14 22:00:52,15.08850204,0.0001349,53.219,35.9415,83.576,276.5386,0.00011119,1.483e-05,0.0,0 STARLINK-3728,1 52361U 22045AG  23318.91728005  .00001483  00000-0  11119-3 0  9991,2 52361  53.2190  35.9415 0001349  83.5760 276.5386 15.08850204 88109,6917.849,95.437,540.647,538.781,0.0
52361.0,STARLINK-3728,PAYLOAD,2023-11-15 10:43:59,15.08836349,0.0001376,53.2192,33.5648,90.8323,269.2827,-0.00010486,-1.956e-05,0.0,0 STARLINK-3728,1 52361U 22045AG  23319.44721554 -.00001956  00000-0 -10486-3 0  9995,2 52361  53.2192  33.5648 0001376  90.8323 269.2827 15.08836349 88180,6917.892,95.438,540.708,538.805,0.0
52361.0,STARLINK-3728,PAYLOAD,2023-11-15 12:19:22,15.08836792,0.0001369,53.2192,33.2679,90.8945,269.2204,-9.7889e-05,-1.845e-05,0.0,0 STARLINK-3728,1 52361U 22045AG  23319.51345523 -.00001845  00000-0 -97889-4 0  9991,2 52361  53.2192  33.2679 0001369  90.8945 269.2204 15.08836792 88195,6917.89,95.438,540.702,538.808,0.0
52361.0,STARLINK-3728,PAYLOAD,2023-11-16 13:45:32,15.08839444,0.0001447,53.2197,28.5103,101.0561,259.0593,9.9176e-05,1.291e-05,0.0,0 STARLINK-3728,1 52361U 22045AG  23320.57329391  .00001291  00000-0  99176-4 0  9998,2 52361  53.2197  28.5103 0001447 101.0561 259.0593 15.08839444 88358,6917.882,95.438,540.748,538.746,0.0
52361.0,STARLINK-3728,PAYLOAD,2023-11-16 21:42:28,15.08845202,0.0001397,53.2195,27.0232,90.8213,269.2939,-6.1634e-05,-1.269e-05,0.0,0 STARLINK-3728,1 52361U 22045AG  23320.90449378 -.00001269  00000-0 -61634-4 0  9998,2 52361  53.2195  27.0232 0001397  90.8213 269.2939 15.08845202 88408,6917.864,95.437,540.696,538.763,0.0
52361.0,STARLINK-3728,PAYLOAD,2023-11-17 12:00:56,15.08839672,0.000142,53.2191,24.3449,85.5954,274.52,0.00016355,2.316e-05,0.0,0 STARLINK-3728,1 52361U 22045AG  23321.50065620  .00002316  00000-0  16355-3 0  9990,2 52361  53.2191  24.3449 0001420  85.5954 274.5200 15.08839672 88497,6917.881,95.438,540.729,538.764,0.0
52361.0,STARLINK-3728,PAYLOAD,2023-11-17 21:33:15,15.08839157,0.0001586,53.2193,22.562,72.7742,287.3423,0.00013704,1.894e-05,0.0,0 STARLINK-3728,1 52361U 22045AG  23321.89809814  .00001894  00000-0  13704-3 0  9998,2 52361  53.2193  22.5620 0001586  72.7742 287.3423 15.08839157 88550,6917.883,95.438,540.845,538.651,0.0
52361.0,STARLINK-3728,PAYLOAD,2023-11-18 03:54:48,15.08841971,0.0001485,53.2187,21.3731,84.7717,275.3445,7.983e-05,9.83e-06,0.0,0 STARLINK-3728,1 52361U 22045AG  23322.16305785  .00000983  00000-0  79830-4 0  9998,2 52361  53.2187  21.3731 0001485  84.7717 275.3445 15.08841971 88598,6917.874,95.437,540.767,538.712,0.0
52361.0,STARLINK-3728,PAYLOAD,2023-11-18 10:16:20,15.08844686,0.0001272,53.2178,20.183,91.618,268.4958,8.0821e-05,9.99e-06,0.0,0 STARLINK-3728,1 52361U 22045AG  23322.42801534  .00000999  00000-0  80821-4 0  9999,2 52361  53.2178  20.1830 0001272  91.6180 268.4958 15.08844686 88633,6917.866,95.437,540.611,538.851,0.0
52361.0,STARLINK-3728,PAYLOAD,2023-11-18 21:24:02,15.08841485,0.0001338,53.2176,18.1013,86.7071,273.4075,8.9125e-05,1.131e-05,0.0,0 STARLINK-3728,1 52361U 22045AG  23322.89169575  .00001131  00000-0  89125-4 0  9997,2 52361  53.2176  18.1013 0001338  86.7071 273.4075 15.08841485 88706,6917.876,95.437,540.666,538.815,0.0
52361.0,STARLINK-3728,PAYLOAD,2023-11-19 10:07:07,15.08844541,0.0001381,53.218,15.7218,91.0134,269.1016,3.4101e-05,2.55e-06,0.0,0 STARLINK-3728,1 52361U 22045AG  23323.42161570  .00000255  00000-0  34101-4 0  9994,2 52361  53.2180  15.7218 0001381  91.0134 269.1016 15.08844541 88789,6917.867,95.437,540.687,538.776,0.0
52361.0,STARLINK-3728,PAYLOAD,2023-11-19 13:17:53,15.08847483,0.0001419,53.218,15.1265,91.9327,268.1828,5.7484e-05,6.27e-06,0.0,0 STARLINK-3728,1 52361U 22045AG  23323.55409268  .00000627  00000-0  57484-4 0  9999,2 52361  53.2180  15.1265 0001419  91.9327 268.1828 15.08847483 88801,6917.858,95.437,540.704,538.741,0.0
52361.0,STARLINK-3728,PAYLOAD,2023-11-19 21:14:49,15.08842835,0.0001393,53.2178,13.6391,96.5502,263.5649,2.6587e-05,1.35e-06,0.0,0 STARLINK-3728,1 52361U 22045AG  23323.88529461  .00000135  00000-0  26587-4 0  9997,2 52361  53.2178  13.6391 0001393  96.5502 263.5649 15.08842835 88859,6917.872,95.437,540.7,538.773,0.0
52361.0,STARLINK-3728,PAYLOAD,2023-11-20 11:33:17,15.08846893,0.0001614,53.2179,10.9633,101.8872,258.2301,6.0002e-05,6.67e-06,0.0,0 STARLINK-3728,1 52361U 22045AG  23324.48145185  .00000667  00000-0  60002-4 0  9991,2 52361  53.2179  10.9633 0001614 101.8872 258.2301 15.08846893 88949,6917.859,95.437,540.841,538.608,0.0
52361.0,STARLINK-3728,PAYLOAD,2023-11-21 03:27:09,15.08836718,0.0001465,53.2176,7.9902,97.2634,262.8524,4.2887e-05,3.95e-06,0.0,0 STARLINK-3728,1 52361U 22045AG  23325.14385830  .00000395  00000-0  42887-4 0  9997,2 52361  53.2176   7.9902 0001465  97.2634 262.8524 15.08836718 89044,6917.89,95.438,540.769,538.742,0.0
52361.0,STARLINK-3728,PAYLOAD,2023-11-21 11:24:04,15.08845761,0.0001508,53.2177,6.5037,90.519,269.5975,7.9337e-05,9.75e-06,0.0,0 STARLINK-3728,1 52361U 22045AG  23325.47505335  .00000975  00000-0  79337-4 0  9991,2 52361  53.2177   6.5037 0001508  90.5190 269.5975 15.08845761 89097,6917.863,95.437,540.771,538.685,0.0
52361.0,STARLINK-3728,PAYLOAD,2023-11-22 08:04:05,15.08840936,0.0001347,53.2182,2.6376,92.1986,267.9161,0.00017067,2.429e-05,0.0,0 STARLINK-3728,1 52361U 22045AG  23326.33617499  .00002429  00000-0  17067-3 0  9999,2 52361  53.2182   2.6376 0001347  92.1986 267.9161 15.08840936 89221,6917.878,95.437,540.674,538.811,0.0
52361.0,STARLINK-3728,PAYLOAD,2023-11-23 11:05:38,15.08845823,0.0001625,53.218,357.5815,96.1888,263.9289,0.00010786,1.429e-05,0.0,0 STARLINK-3728,1 52361U 22045AG  23327.46225257  .00001429  00000-0  10786-3 0  9991,2 52361  53.2180 357.5815 0001625  96.1888 263.9289 15.08845823 89398,6917.863,95.437,540.852,538.603,0.0
52361.0,STARLINK-3728,PAYLOAD,2023-11-23 12:41:01,15.08846333,0.0001648,53.218,357.2835,98.2305,261.8874,0.00010861,1.441e-05,0.0,0 STARLINK-3728,1 52361U 22045AG  23327.52849199  .00001441  00000-0  10861-3 0  9993,2 52361  53.2180 357.2835 0001648  98.2305 261.8874 15.08846333 89405,6917.861,95.437,540.866,538.586,0.0
52361.0,STARLINK-3728,PAYLOAD,2023-11-24 10:56:27,15.08830734,0.0001612,53.2182,353.1151,90.0186,270.0991,-4.8641e-05,-1.062e-05,0.0,0 STARLINK-3728,1 52361U 22045AG  23328.45587214 -.00001062  00000-0 -48641-4 0  9992,2 52361  53.2182 353.1151 0001612  90.0186 270.0991 15.08830734 89546,6917.909,95.438,540.889,538.659,0.0
52361.0,STARLINK-3728,PAYLOAD,2023-11-25 09:11:49,15.08856455,0.0001634,53.2177,348.9578,92.625,267.4929,0.00032671,4.918e-05,0.0,0 STARLINK-3728,1 52361U 22045AG  23329.38321708  .00004918  00000-0  32671-3 0  9995,2 52361  53.2177 348.9578 0001634  92.6250 267.4929 15.08856455 89683,6917.83,95.437,540.825,538.565,0.0
52361.0,STARLINK-3728,PAYLOAD,2023-11-26 01:05:41,15.0884685,0.0001632,53.2173,345.9849,102.8789,257.2385,0.0003707,5.618e-05,0.0,0 STARLINK-3728,1 52361U 22045AG  23330.04562315  .00005618  00000-0  37070-3 0  9997,2 52361  53.2173 345.9849 0001632 102.8789 257.2385 15.08846850 89788,6917.859,95.437,540.853,538.595,0.0
52361.0,STARLINK-3728,PAYLOAD,2023-11-26 10:37:59,15.08866633,0.0001874,53.2177,344.1989,94.0072,266.1134,0.00049724,7.64e-05,0.0,0 STARLINK-3728,1 52361U 22045AG  23330.44305230  .00007640  00000-0  49724-3 0  9998,2 52361  53.2177 344.1989 0001874  94.0072 266.1134 15.08866633 89842,6917.799,95.436,540.96,538.368,0.0
52361.0,STARLINK-3728,PAYLOAD,2023-11-27 04:07:16,15.08808171,0.0001655,53.2178,340.9372,69.2975,290.8194,-0.00060543,-9.902e-05,0.0,0 STARLINK-3728,1 52361U 22045AG  23331.17172266 -.00009902  00000-0 -60543-3 0  9997,2 52361  53.2178 340.9372 0001655  69.2975 290.8194 15.08808171 89951,6917.978,95.44,540.988,538.698,0.0
52361.0,STARLINK-3728,PAYLOAD,2023-11-27 10:28:49,15.08807238,0.0001739,53.2166,339.7357,88.8319,271.2872,-0.00051213,-8.422e-05,0.0,0 STARLINK-3728,1 52361U 22045AG  23331.43668458 -.00008422  00000-0 -51213-3 0  9999,2 52361  53.2166 339.7357 0001739  88.8319 271.2872 15.08807238 89992,6917.981,95.44,541.049,538.642,0.0
52361.0,STARLINK-3728,PAYLOAD,2023-11-28 00:47:16,15.08845656,0.0001881,53.2154,337.063,91.3506,268.7701,0.00039038,5.931e-05,0.0,0 STARLINK-3728,1 52361U 22045AG  23332.03283498  .00005931  00000-0  39038-3 0  9994,2 52361  53.2154 337.0630 0001881  91.3506 268.7701 15.08845656 90089,6917.863,95.437,541.029,538.427,0.0
52361.0,STARLINK-3728,PAYLOAD,2023-11-28 05:33:25,15.08868735,0.0002132,53.2185,336.1746,101.3085,258.8147,0.00050325,7.736e-05,0.0,0 STARLINK-3728,1 52361U 22045AG  23332.23154029  .00007736  00000-0  50325-3 0  9990,2 52361  53.2185 336.1746 0002132 101.3085 258.8147 15.08868735 90116,6917.793,95.436,541.132,538.183,0.0
52361.0,STARLINK-3728,PAYLOAD,2023-11-29 03:48:49,15.08851218,0.0001868,53.2167,332.0032,99.0516,261.0687,0.00040193,6.116e-05,0.0,0 STARLINK-3728,1 52361U 22045AG  23333.15890961  .00006116  00000-0  40193-3 0  9997,2 52361  53.2167 332.0032 0001868  99.0516 261.0687 15.08851218 90254,6917.846,95.437,541.003,538.419,0.0
52361.0,STARLINK-3728,PAYLOAD,2023-11-29 06:59:35,15.08852225,0.0001839,53.2167,331.4086,100.8254,259.2945,0.00032525,4.894e-05,0.0,0 STARLINK-3728,1 52361U 22045AG  23333.29138757  .00004894  00000-0  32525-3 0  9991,2 52361  53.2167 331.4086 0001839 100.8254 259.2945 15.08852225 90271,6917.843,95.437,540.98,538.436,0.0
